OBJECT_NAME,OBJECT_ID,EPOCH,MEAN_MOTION,ECCENTRICITY,INCLINATION,RA_OF_ASC_NODE,ARG_OF_PERICENTER,MEAN_ANOMALY,EPHEMERIS_TYPE,CLASSIFICATION_TYPE,NORAD_CAT_ID,ELEMENT_SET_NO,REV_AT_EPOCH,BSTAR,MEAN_MOTION_DOT,MEAN_MOTION_DDOT
SHERPA-LTC2,2022-107BG,2026-07-20T21:55:46.506144,14.69946244,.03931644,53.2364,77.5332,320.7568,36.5499,0,U,53754,999,20750,.13671083E-3,.2459E-4,0
CENTISPACE-1 S3,2022-108A,2026-07-20T22:16:50.747232,14.61286743,.00108275,53.5329,275.7343,77.7008,282.5179,0,U,53757,999,20646,.61518571E-4,.116E-5,0
CENTISPACE-1 S4,2022-108B,2026-07-20T21:31:25.473504,14.61972055,.00102064,53.5303,273.2220,67.0835,293.1217,0,U,53758,999,20649,.60201178E-4,.113E-5,0
BLUEWALKER-3,2022-111AL,2026-07-20T10:34:46.867872,15.38642700,.0004677,53.2275,237.8077,289.4443,70.6056,0,U,53807,999,21532,.94837956E-4,.3279E-4,0
YUNHAI-1 03,2022-115A,2026-07-20T23:43:23.902176,14.32740131,.00038154,98.5549,199.7088,319.7248,40.3653,0,U,53877,999,20035,.11540021E-3,.27E-5,0
CENTISPACE-1 S5,2022-126A,2026-07-20T21:40:13.399104,14.63063475,.00140914,54.9992,78.0347,135.4733,224.7396,0,U,54020,999,20197,.12151214E-3,.439E-5,0
CENTISPACE-1 S6,2022-126B,2026-07-20T21:54:47.097504,14.62322873,.00158647,54.9995,80.0182,136.8708,223.3531,0,U,54021,999,20193,.11300703E-3,.386E-5,0
OTB-3-GAZELLE,2022-127A,2026-07-20T21:43:47.086176,14.42685339,.00144699,98.3965,193.0996,87.1897,273.0949,0,U,54023,999,19922,.40123222E-4,.9E-6,0
ASO-S,2022-129A,2026-07-20T22:47:29.574240,14.52076643,.001413,98.2760,206.5485,354.8585,5.2463,0,U,54029,999,20032,.41935249E-4,.125E-5,0
HJ-2E,2022-132A,2026-07-20T23:59:56.892192,15.22741730,.00181823,97.3811,205.7790,247.8788,112.0519,0,U,54035,999,20956,.21878589E-3,.5057E-4,0
COSMOS 2561,2022-137A,2026-07-20T21:07:52.266720,15.52463802,.0008242,96.9163,259.6361,255.0048,105.0294,0,U,54109,999,21157,.15383E-3,.933E-4,0
GONETS-M 23,2022-139A,2026-07-20T21:51:06.556320,12.42892126,.00223323,82.5099,327.3374,146.4728,213.7770,0,U,54150,999,16983,.2072396E-3,.39E-6,0
GONETS-M 24,2022-139B,2026-07-20T21:12:18.595584,12.42892609,.0017433,82.5016,326.3909,156.1363,204.0529,0,U,54151,999,16983,.14123958E-3,.3E-6,0
GONETS-M 25,2022-139C,2026-07-20T22:48:42.230592,12.42890994,.00213659,82.5081,327.0538,154.9203,205.2919,0,U,54152,999,16984,.13369433E-3,.29E-6,0
SKIF-D,2022-139D,2026-07-20T05:36:35.487648,5.00432793,.00074781,89.9487,96.6586,185.3114,174.7531,0,U,54153,999,6576,0,-.7E-7,0
MATS,2022-147A,2026-07-20T22:43:56.078112,15.05526441,.00141962,97.6839,203.4026,86.1704,274.1145,0,U,54227,999,20284,.16091453E-3,.2257E-4,0
EOS-6 (OCEANSAT-3),2022-158A,2026-07-20T21:46:51.904416,14.46986303,.00007328,98.3550,299.6555,152.7182,207.4049,0,U,54361,999,19271,.51272988E-4,.143E-5,0
DONGPO 09,2022-167D,2026-07-20T22:40:35.463360,15.37013601,.00024055,97.6929,14.4821,38.9321,321.2095,0,U,54685,999,20063,.22863797E-3,.8192E-4,0
DONGPO 08,2022-167E,2026-07-20T22:04:52.550688,15.34254567,.00089777,97.6895,11.4726,56.4565,303.7533,0,U,54686,999,20049,.22266407E-3,.7307E-4,0
DONGPO 10,2022-167H,2026-07-20T21:48:41.340384,15.35072439,.00044784,97.6976,13.4924,9.3377,350.7947,0,U,54689,999,20053,.21658161E-3,.7286E-4,0
JILIN-1 GAOFEN 03D48,2022-167P,2026-07-20T22:54:29.435040,15.35868514,.00059013,97.6911,12.9302,10.7344,349.4024,0,U,54695,999,20057,.23315401E-3,.8056E-4,0
STAR VIBE,2023-001A,2026-07-20T21:23:42.644256,15.43449238,.00048395,97.3147,266.5086,11.7691,348.3670,0,U,55009,999,19742,.2223587E-3,.9865E-4,0
BRO-8,2023-001C,2026-07-20T22:32:56.142816,15.50990571,.00042428,97.3178,267.6547,18.1959,341.9444,0,U,55011,999,19743,.44187014E-3,.25603E-3,0
CONNECTA T1.2,2023-001D,2026-07-20T18:17:11.253984,15.53177131,.00033435,97.3233,273.1039,336.8127,23.2975,0,U,55012,999,19775,.44719194E-3,.28026E-3,0
BIRKELAND,2023-001G,2026-07-20T22:14:37.195296,15.40596235,.00057152,97.3325,269.9926,0.6966,359.4288,0,U,55015,999,19754,.15435039E-3,.6197E-4,0
ION SCV-008,2023-001AU,2026-07-20T19:35:01.569696,15.28918578,.00133042,97.5712,298.7065,251.0297,108.9501,0,U,55051,999,19647,.13503097E-3,.3722E-4,0
ION SCV-007,2023-001BD,2026-07-20T22:08:22.170912,14.77579238,.00113787,97.8987,264.2652,221.8962,138.1378,0,U,55060,999,19123,.40681019E-4,.24E-5,0
HUYGENS,2023-001CN,2026-07-20T22:14:44.457216,15.40596909,.00077981,97.3229,269.1784,330.0761,30.0039,0,U,55093,999,19756,.15151901E-3,.6085E-4,0
SHARJAHSAT-1,2023-001CZ,2026-07-20T22:44:51.253152,15.50257228,.00041803,97.3139,271.2082,0.2523,359.8730,0,U,55104,999,19772,.25869958E-3,.14546E-3,0
HORUS 1,2023-025A,2026-07-20T14:03:33.198624,15.23570431,.0003032,97.3446,275.4784,105.5012,254.6560,0,U,55690,999,18913,.13577E-3,.3177E-4,0
