SHERPA-LTC2             
1 53754U 22107BG  26201.91373271  .00002459  00000+0  13671-3 0  9990
2 53754  53.2364  77.5332 0393164 320.7568  36.5499 14.69946244207502
CENTISPACE-1 S3         
1 53757U 22108A   26201.92836513  .00000116  00000+0  61519-4 0  9991
2 53757  53.5329 275.7343 0010827  77.7008 282.5179 14.61286743206468
CENTISPACE-1 S4         
1 53758U 22108B   26201.89682261  .00000113  00000+0  60201-4 0  9991
2 53758  53.5303 273.2220 0010206  67.0835 293.1217 14.61972055206491
BLUEWALKER-3            
1 53807U 22111AL  26201.44082023  .00003279  00000+0  94838-4 0  9990
2 53807  53.2275 237.8077 0004677 289.4443  70.6056 15.38642700215324
YUNHAI-1 03             
1 53877U 22115A   26201.98847109  .00000270  00000+0  11540-3 0  9990
2 53877  98.5549 199.7088 0003815 319.7248  40.3653 14.32740131200352
CENTISPACE-1 S5         
1 54020U 22126A   26201.90293286  .00000439  00000+0  12151-3 0  9992
2 54020  54.9992  78.0347 0014091 135.4733 224.7396 14.63063475201972
CENTISPACE-1 S6         
1 54021U 22126B   26201.91304511  .00000386  00000+0  11301-3 0  9995
2 54021  54.9995  80.0182 0015864 136.8708 223.3531 14.62322873201933
OTB-3-GAZELLE           
1 54023U 22127A   26201.90540609  .00000090  00000+0  40123-4 0  9994
2 54023  98.3965 193.0996 0014469  87.1897 273.0949 14.42685339199229
ASO-S                   
1 54029U 22129A   26201.94964785  .00000125  00000+0  41935-4 0  9992
2 54029  98.2760 206.5485 0014130 354.8585   5.2463 14.52076643200326
HJ-2E                   
1 54035U 22132A   26201.99996403  .00005057  00000+0  21879-3 0  9993
2 54035  97.3811 205.7790 0018182 247.8788 112.0519 15.22741730209565
COSMOS 2561             
1 54109U 22137A   26201.88046605  .00009330  00000+0  15383-3 0  9999
2 54109  96.9163 259.6361 0008242 255.0048 105.0294 15.52463802211570
GONETS-M 23             
1 54150U 22139A   26201.91049255  .00000039  00000+0  20724-3 0  9997
2 54150  82.5099 327.3374 0022332 146.4728 213.7770 12.42892126169834
GONETS-M 24             
1 54151U 22139B   26201.88354856  .00000030  00000+0  14124-3 0  9998
2 54151  82.5016 326.3909 0017433 156.1363 204.0529 12.42892609169837
GONETS-M 25             
1 54152U 22139C   26201.95048878  .00000029  00000+0  13369-3 0  9999
2 54152  82.5081 327.0538 0021365 154.9203 205.2919 12.42890994169846
SKIF-D                  
1 54153U 22139D   26201.23374407 -.00000007  00000+0  00000+0 0  9992
2 54153  89.9487  96.6586 0007478 185.3114 174.7531  5.00432793 65769
MATS                    
1 54227U 22147A   26201.94717683  .00002257  00000+0  16091-3 0  9997
2 54227  97.6839 203.4026 0014196  86.1704 274.1145 15.05526441202841
EOS-6 (OCEANSAT-3)      
1 54361U 22158A   26201.90754519  .00000143  00000+0  51273-4 0  9997
2 54361  98.3550 299.6555 0000732 152.7182 207.4049 14.46986303192710
DONGPO 09               
1 54685U 22167D   26201.94485490  .00008192  00000+0  22864-3 0  9994
2 54685  97.6929  14.4821 0002405  38.9321 321.2095 15.37013601200639
DONGPO 08               
1 54686U 22167E   26201.92005267  .00007307  00000+0  22266-3 0  9996
2 54686  97.6895  11.4726 0008977  56.4565 303.7533 15.34254567200499
DONGPO 10               
1 54689U 22167H   26201.90881181  .00007286  00000+0  21658-3 0  9994
2 54689  97.6976  13.4924 0004478   9.3377 350.7947 15.35072439200537
JILIN-1 GAOFEN 03D48    
1 54695U 22167P   26201.95450735  .00008056  00000+0  23315-3 0  9991
2 54695  97.6911  12.9302 0005901  10.7344 349.4024 15.35868514200571
STAR VIBE               
1 55009U 23001A   26201.89146579  .00009865  00000+0  22236-3 0  9990
2 55009  97.3147 266.5086 0004839  11.7691 348.3670 15.43449238197421
BRO-8                   
1 55011U 23001C   26201.93953869  .00025603  00000+0  44187-3 0  9993
2 55011  97.3178 267.6547 0004242  18.1959 341.9444 15.50990571197436
CONNECTA T1.2           
1 55012U 23001D   26201.76193581  .00028026  00000+0  44719-3 0  9995
2 55012  97.3233 273.1039 0003343 336.8127  23.2975 15.53177131197751
BIRKELAND               
1 55015U 23001G   26201.92681939  .00006197  00000+0  15435-3 0  9993
2 55015  97.3325 269.9926 0005715   0.6966 359.4288 15.40596235197540
ION SCV-008             
1 55051U 23001AU  26201.81599039  .00003722  00000+0  13503-3 0  9995
2 55051  97.5712 298.7065 0013304 251.0297 108.9501 15.28918578196478
ION SCV-007             
1 55060U 23001BD  26201.92247883  .00000240  00000+0  40681-4 0  9994
2 55060  97.8987 264.2652 0011378 221.8962 138.1378 14.77579238191233
HUYGENS                 
1 55093U 23001CN  26201.92690344  .00006085  00000+0  15152-3 0  9991
2 55093  97.3229 269.1784 0007798 330.0761  30.0039 15.40596909197565
SHARJAHSAT-1            
1 55104U 23001CZ  26201.94781543  .00014546  00000+0  25870-3 0  9997
2 55104  97.3139 271.2082 0004180   0.2523 359.8730 15.50257228197724
HORUS 1                 
1 55690U 23025A   26201.58580091  .00003177  00000+0  13577-3 0  9997
2 55690  97.3446 275.4784 0003032 105.5012 254.6560 15.23570431189130
